{
  "type": "FeatureCollection",
  "features": [
    {
      "type": "Feature",
      "properties": {
        "norad_id": 38867,
        "name": "INTELSAT 23 (IS-23)",
        "group": "intelsat",
        "lat": -0.0300253820072417,
        "lon": -57.79889871036938,
        "alt_km": 35784.537429955904,
        "timestamp": "2025-12-18T17:50:14.623955+00:00",
        "meta_object_name": "INTELSAT 23 (IS-23)",
        "meta_object_id": "2012-057A",
        "meta_epoch": "2025-12-17T09:38:59.623872",
        "meta_mean_motion": 1.00273732,
        "meta_eccentricity": 3.78e-05,
        "meta_inclination": 0.0295,
        "meta_ra_of_asc_node": 83.0302,
        "meta_arg_of_pericenter": 175.0842,
        "meta_mean_anomaly": 279.9522,
        "meta_ephemeris_type": 0,
        "meta_classification_type": "U",
        "meta_norad_cat_id": 38867,
        "meta_element_set_no": 999,
        "meta_rev_at_epoch": 4813,
        "meta_bstar": 0,
        "meta_mean_motion_dot": -2.6e-06,
        "meta_mean_motion_ddot": 0,
        "tle_line1": "1 38867U 12057A   25351.40207898 -.00000260  00000+0  00000+0 0  9998",
        "tle_line2": "2 38867   0.0295  83.0302 0000378 175.0842 279.9522  1.00273732 48138"
      },
      "geometry": {
        "type": "Point",
        "coordinates": [
          -57.79889871036938,
          -0.0300253820072417
        ]
      }
    },
    {
      "type": "Feature",
      "properties": {
        "norad_id": 39360,
        "name": "FM-6",
        "group": "intelsat",
        "lat": -0.012430047800740288,
        "lon": -120.98905435241241,
        "alt_km": 35780.56156116329,
        "timestamp": "2025-12-18T17:50:14.623967+00:00",
        "meta_object_name": "FM-6",
        "meta_object_id": "2013-058A",
        "meta_epoch": "2025-12-17T23:02:47.205312",
        "meta_mean_motion": 1.00269722,
        "meta_eccentricity": 0.00028982,
        "meta_inclination": 0.0123,
        "meta_ra_of_asc_node": 66.6407,
        "meta_arg_of_pericenter": 112.2376,
        "meta_mean_anomaly": 137.485,
        "meta_ephemeris_type": 0,
        "meta_classification_type": "U",
        "meta_norad_cat_id": 39360,
        "meta_element_set_no": 999,
        "meta_rev_at_epoch": 4425,
        "meta_bstar": 0,
        "meta_mean_motion_dot": 8e-08,
        "meta_mean_motion_ddot": 0,
        "tle_line1": "1 39360U 13058A   25351.96026858  .00000008  00000+0  00000+0 0  9994",
        "tle_line2": "2 39360   0.0123  66.6407 0002898 112.2376 137.4850  1.00269722 44259"
      },
      "geometry": {
        "type": "Point",
        "coordinates": [
          -120.98905435241241,
          -0.012430047800740288
        ]
      }
    },
    {
      "type": "Feature",
      "properties": {
        "norad_id": 40271,
        "name": "INTELSAT 30 (IS-30)",
        "group": "intelsat",
        "lat": -0.035621303234777364,
        "lon": -99.90379061462107,
        "alt_km": 35793.07927757792,
        "timestamp": "2025-12-18T17:50:14.623979+00:00",
        "meta_object_name": "INTELSAT 30 (IS-30)",
        "meta_object_id": "2014-062A",
        "meta_epoch": "2025-12-18T06:03:38.488320",
        "meta_mean_motion": 1.0027101,
        "meta_eccentricity": 0.00015973,
        "meta_inclination": 0.0174,
        "meta_ra_of_asc_node": 29.32,
        "meta_arg_of_pericenter": 54.5236,
        "meta_mean_anomaly": 359.13,
        "meta_ephemeris_type": 0,
        "meta_classification_type": "U",
        "meta_norad_cat_id": 40271,
        "meta_element_set_no": 999,
        "meta_rev_at_epoch": 498,
        "meta_bstar": 0,
        "meta_mean_motion_dot": -1.26e-06,
        "meta_mean_motion_ddot": 0,
        "tle_line1": "1 40271U 14062A   25352.25252880 -.00000126  00000+0  00000+0 0  9994",
        "tle_line2": "2 40271   0.0174  29.3200 0001597  54.5236 359.1300  1.00271010  4985"
      },
      "geometry": {
        "type": "Point",
        "coordinates": [
          -99.90379061462107,
          -0.035621303234777364
        ]
      }
    },
    {
      "type": "Feature",
      "properties": {
        "norad_id": 40333,
        "name": "DIRECTV 14",
        "group": "intelsat",
        "lat": -0.045570055046822586,
        "lon": -104.0643231164915,
        "alt_km": 35786.5152952062,
        "timestamp": "2025-12-18T17:50:14.623990+00:00",
        "meta_object_name": "DIRECTV 14",
        "meta_object_id": "2014-078B",
        "meta_epoch": "2025-12-17T21:24:49.087584",
        "meta_mean_motion": 1.00270651,
        "meta_eccentricity": 6.041e-05,
        "meta_inclination": 0.0191,
        "meta_ra_of_asc_node": 340.5733,
        "meta_arg_of_pericenter": 183.4155,
        "meta_mean_anomaly": 144.7598,
        "meta_ephemeris_type": 0,
        "meta_classification_type": "U",
        "meta_norad_cat_id": 40333,
        "meta_element_set_no": 999,
        "meta_rev_at_epoch": 4022,
        "meta_bstar": 0,
        "meta_mean_motion_dot": -1e-06,
        "meta_mean_motion_ddot": 0,
        "tle_line1": "1 40333U 14078B   25351.89223481 -.00000100  00000+0  00000+0 0  9996",
        "tle_line2": "2 40333   0.0191 340.5733 0000604 183.4155 144.7598  1.00270651 40226"
      },
      "geometry": {
        "type": "Point",
        "coordinates": [
          -104.0643231164915,
          -0.045570055046822586
        ]
      }
    },
    {
      "type": "Feature",
      "properties": {
        "norad_id": 40663,
        "name": "DIRECTV 15",
        "group": "intelsat",
        "lat": -0.03240032662403275,
        "lon": -107.7151429922469,
        "alt_km": 35786.699341107305,
        "timestamp": "2025-12-18T17:50:14.624002+00:00",
        "meta_object_name": "DIRECTV 15",
        "meta_object_id": "2015-026A",
        "meta_epoch": "2025-12-18T05:24:41.041728",
        "meta_mean_motion": 1.00271663,
        "meta_eccentricity": 2.319e-05,
        "meta_inclination": 0.0086,
        "meta_ra_of_asc_node": 10.5051,
        "meta_arg_of_pericenter": 116.1264,
        "meta_mean_anomaly": 298.7626,
        "meta_ephemeris_type": 0,
        "meta_classification_type": "U",
        "meta_norad_cat_id": 40663,
        "meta_element_set_no": 999,
        "meta_rev_at_epoch": 3864,
        "meta_bstar": 0,
        "meta_mean_motion_dot": -7.8e-07,
        "meta_mean_motion_ddot": 0,
        "tle_line1": "1 40663U 15026A   25352.22547502 -.00000078  00000+0  00000+0 0  9991",
        "tle_line2": "2 40663   0.0086  10.5051 0000231 116.1264 298.7626  1.00271663 38641"
      },
      "geometry": {
        "type": "Point",
        "coordinates": [
          -107.7151429922469,
          -0.03240032662403275
        ]
      }
    },
    {
      "type": "Feature",
      "properties": {
        "norad_id": 40664,
        "name": "SKY MEXICO-1",
        "group": "intelsat",
        "lat": -0.028323656029782263,
        "lon": -83.62139169895323,
        "alt_km": 35776.31381416014,
        "timestamp": "2025-12-18T17:50:14.624013+00:00",
        "meta_object_name": "SKY MEXICO-1",
        "meta_object_id": "2015-026B",
        "meta_epoch": "2025-12-18T06:12:25.516224",
        "meta_mean_motion": 1.00270949,
        "meta_eccentricity": 0.00023996,
        "meta_inclination": 0.0149,
        "meta_ra_of_asc_node": 312.4559,
        "meta_arg_of_pericenter": 332.3855,
        "meta_mean_anomaly": 176.622,
        "meta_ephemeris_type": 0,
        "meta_classification_type": "U",
        "meta_norad_cat_id": 40664,
        "meta_element_set_no": 999,
        "meta_rev_at_epoch": 3864,
        "meta_bstar": 0,
        "meta_mean_motion_dot": -2.09e-06,
        "meta_mean_motion_ddot": 0,
        "tle_line1": "1 40664U 15026B   25352.25862866 -.00000209  00000+0  00000+0 0  9994",
        "tle_line2": "2 40664   0.0149 312.4559 0002399 332.3855 176.6220  1.00270949 38644"
      },
      "geometry": {
        "type": "Point",
        "coordinates": [
          -83.62139169895323,
          -0.028323656029782263
        ]
      }
    },
    {
      "type": "Feature",
      "properties": {
        "norad_id": 40874,
        "name": "INTELSAT 34 (IS-34)",
        "group": "intelsat",
        "lat": -0.02513039842440879,
        "lon": -60.35597653341624,
        "alt_km": 35789.07178419725,
        "timestamp": "2025-12-18T17:50:14.624025+00:00",
        "meta_object_name": "INTELSAT 34 (IS-34)",
        "meta_object_id": "2015-039A",
        "meta_epoch": "2025-12-18T02:52:57.972288",
        "meta_mean_motion": 1.00270058,
        "meta_eccentricity": 6.213e-05,
        "meta_inclination": 0.0144,
        "meta_ra_of_asc_node": 332.331,
        "meta_arg_of_pericenter": 169.0466,
        "meta_mean_anomaly": 293.3459,
        "meta_ephemeris_type": 0,
        "meta_classification_type": "U",
        "meta_norad_cat_id": 40874,
        "meta_element_set_no": 999,
        "meta_rev_at_epoch": 3780,
        "meta_bstar": 0,
        "meta_mean_motion_dot": -2.6e-06,
        "meta_mean_motion_ddot": 0,
        "tle_line1": "1 40874U 15039A   25352.12011542 -.00000260  00000+0  00000+0 0  9991",
        "tle_line2": "2 40874   0.0144 332.3310 0000621 169.0466 293.3459  1.00270058 37806"
      },
      "geometry": {
        "type": "Point",
        "coordinates": [
          -60.35597653341624,
          -0.02513039842440879
        ]
      }
    }
  ]
}